[
{"CCSDS_OMM_VERS":"2.0",
"COMMENT":"GENERATED VIA SPACE-TRACK.ORG API",
"CREATION_DATE":"2022-10-13T06:56:13",
"ORIGINATOR":"18 SPCS",
"OBJECT_NAME":"VANGUARD 1",
"OBJECT_ID":"1958-002B",
"CENTER_NAME":"EARTH",
"REF_FRAME":"TEME",
"TIME_SYSTEM":"UTC",
"MEAN_ELEMENT_THEORY":"SGP4",
"EPOCH":"2022-10-12T22:43:04.659744",
"MEAN_MOTION":"10.85019980",
"ECCENTRICITY":"0.18465870",
"INCLINATION":"34.2495",
"RA_OF_ASC_NODE":"137.3046",
"ARG_OF_PERICENTER":"206.4378",
"MEAN_ANOMALY":"142.9104",
"EPHEMERIS_TYPE":"0",
"CLASSIFICATION_TYPE":"U",
"NORAD_CAT_ID":"5",
"ELEMENT_SET_NO":"999",
"REV_AT_EPOCH":"29740",
"BSTAR":"0.00030320000000",
"MEAN_MOTION_DOT":"0.00000257",
"MEAN_MOTION_DDOT":"0.0000000000000",
"SEMIMAJOR_AXIS":"8618.731",
"PERIOD":"132.716",
"APOAPSIS":"3832.120",
"PERIAPSIS":"649.073",
"OBJECT_TYPE":"PAYLOAD",
"RCS_SIZE":"SMALL",
"COUNTRY_CODE":"US",
"LAUNCH_DATE":"1958-03-17",
"SITE":"AFETR",
"DECAY_DATE":null,
"FILE":"3607128",
"GP_ID":"214929806",
"TLE_LINE0":"0 VANGUARD 1",
"TLE_LINE1":"1     5U 58002B   22285.94658171  .00000257  00000-0  30320-3 0  9995",
"TLE_LINE2":"2     5  34.2495 137.3046 1846587 206.4378 142.9104 10.85019980297401"},
{"CCSDS_OMM_VERS":"2.0",
"COMMENT":"GENERATED VIA SPACE-TRACK.ORG API",
"CREATION_DATE":"2022-10-14T02:17:06",
"ORIGINATOR":"18 SPCS",
"OBJECT_NAME":"VANGUARD 1",
"OBJECT_ID":"1958-002B",
"CENTER_NAME":"EARTH",
"REF_FRAME":"TEME",
"TIME_SYSTEM":"UTC",
"MEAN_ELEMENT_THEORY":"SGP4",
"EPOCH":"2022-10-13T20:48:10.503072",
"MEAN_MOTION":"10.85020420",
"ECCENTRICITY":"0.18466300",
"INCLINATION":"34.2503",
"RA_OF_ASC_NODE":"134.4684",
"ARG_OF_PERICENTER":"210.5812",
"MEAN_ANOMALY":"137.3052",
"EPHEMERIS_TYPE":"0",
"CLASSIFICATION_TYPE":"U",
"NORAD_CAT_ID":"5",
"ELEMENT_SET_NO":"999",
"REV_AT_EPOCH":"29740",
"BSTAR":"0.00027236000000",
"MEAN_MOTION_DOT":"0.00000233",
"MEAN_MOTION_DDOT":"0.0000000000000",
"SEMIMAJOR_AXIS":"8618.729",
"PERIOD":"132.716",
"APOAPSIS":"3832.155",
"PERIAPSIS":"649.034",
"OBJECT_TYPE":"PAYLOAD",
"RCS_SIZE":"SMALL",
"COUNTRY_CODE":"US",
"LAUNCH_DATE":"1958-03-17",
"SITE":"AFETR",
"DECAY_DATE":null,
"FILE":"3609636",
"GP_ID":"215004769",
"TLE_LINE0":"0 VANGUARD 1",
"TLE_LINE1":"1 00005U 58002B   22286.86678823  .00000233  00000-0  27236-3 0  9999",
"TLE_LINE2":"2 00005  34.2503 134.4684 1846630 210.5812 137.3052 10.85020420297406"},
{"CCSDS_OMM_VERS":"2.0",
"COMMENT":"GENERATED VIA SPACE-TRACK.ORG API",
"CREATION_DATE":"2022-10-14T19:05:59",
"ORIGINATOR":"18 SPCS",
"OBJECT_NAME":"VANGUARD 1",
"OBJECT_ID":"1958-002B",
"CENTER_NAME":"EARTH",
"REF_FRAME":"TEME",
"TIME_SYSTEM":"UTC",
"MEAN_ELEMENT_THEORY":"SGP4",
"EPOCH":"2022-10-14T05:38:13.373664",
"MEAN_MOTION":"10.85020649",
"ECCENTRICITY":"0.18466380",
"INCLINATION":"34.2506",
"RA_OF_ASC_NODE":"133.3340",
"ARG_OF_PERICENTER":"212.2385",
"MEAN_ANOMALY":"135.0878",
"EPHEMERIS_TYPE":"0",
"CLASSIFICATION_TYPE":"U",
"NORAD_CAT_ID":"5",
"ELEMENT_SET_NO":"999",
"REV_AT_EPOCH":"29744",
"BSTAR":"0.00027190000000",
"MEAN_MOTION_DOT":"0.00000233",
"MEAN_MOTION_DDOT":"0.0000000000000",
"SEMIMAJOR_AXIS":"8618.728",
"PERIOD":"132.716",
"APOAPSIS":"3832.160",
"PERIAPSIS":"649.026",
"OBJECT_TYPE":"PAYLOAD",
"RCS_SIZE":"SMALL",
"COUNTRY_CODE":"US",
"LAUNCH_DATE":"1958-03-17",
"SITE":"AFETR",
"DECAY_DATE":null,
"FILE":"3611991",
"GP_ID":"215079893",
"TLE_LINE0":"0 VANGUARD 1",
"TLE_LINE1":"1 00005U 58002B   22287.23487701  .00000233  00000-0  27190-3 0  9993",
"TLE_LINE2":"2 00005  34.2506 133.3340 1846638 212.2385 135.0878 10.85020649297446"},
{"CCSDS_OMM_VERS":"2.0",
"COMMENT":"GENERATED VIA SPACE-TRACK.ORG API",
"CREATION_DATE":"2022-10-15T04:03:01",
"ORIGINATOR":"18 SPCS",
"OBJECT_NAME":"VANGUARD 1",
"OBJECT_ID":"1958-002B",
"CENTER_NAME":"EARTH",
"REF_FRAME":"TEME",
"TIME_SYSTEM":"UTC",
"MEAN_ELEMENT_THEORY":"SGP4",
"EPOCH":"2022-10-14T21:05:49.183008",
"MEAN_MOTION":"10.85021002",
"ECCENTRICITY":"0.18466730",
"INCLINATION":"34.2511",
"RA_OF_ASC_NODE":"131.3487",
"ARG_OF_PERICENTER":"215.1387",
"MEAN_ANOMALY":"131.2435",
"EPHEMERIS_TYPE":"0",
"CLASSIFICATION_TYPE":"U",
"NORAD_CAT_ID":"5",
"ELEMENT_SET_NO":"999",
"REV_AT_EPOCH":"29751",
"BSTAR":"0.00026572000000",
"MEAN_MOTION_DOT":"0.00000229",
"MEAN_MOTION_DDOT":"0.0000000000000",
"SEMIMAJOR_AXIS":"8618.726",
"PERIOD":"132.716",
"APOAPSIS":"3832.188",
"PERIAPSIS":"648.994",
"OBJECT_TYPE":"PAYLOAD",
"RCS_SIZE":"SMALL",
"COUNTRY_CODE":"US",
"LAUNCH_DATE":"1958-03-17",
"SITE":"AFETR",
"DECAY_DATE":null,
"FILE":"3612869",
"GP_ID":"215122087",
"TLE_LINE0":"0 VANGUARD 1",
"TLE_LINE1":"1 00005U 58002B   22287.87904147  .00000229  00000-0  26572-3 0  9999",
"TLE_LINE2":"2 00005  34.2511 131.3487 1846673 215.1387 131.2435 10.85021002297514"},
{"CCSDS_OMM_VERS":"2.0",
"COMMENT":"GENERATED VIA SPACE-TRACK.ORG API",
"CREATION_DATE":"2022-10-15T07:06:19",
"ORIGINATOR":"18 SPCS",
"OBJECT_NAME":"VANGUARD 1",
"OBJECT_ID":"1958-002B",
"CENTER_NAME":"EARTH",
"REF_FRAME":"TEME",
"TIME_SYSTEM":"UTC",
"MEAN_ELEMENT_THEORY":"SGP4",
"EPOCH":"2022-10-14T23:18:20.091168",
"MEAN_MOTION":"10.85021060",
"ECCENTRICITY":"0.18466810",
"INCLINATION":"34.2512",
"RA_OF_ASC_NODE":"131.0650",
"ARG_OF_PERICENTER":"215.5531",
"MEAN_ANOMALY":"130.6980",
"EPHEMERIS_TYPE":"0",
"CLASSIFICATION_TYPE":"U",
"NORAD_CAT_ID":"5",
"ELEMENT_SET_NO":"999",
"REV_AT_EPOCH":"29761",
"BSTAR":"0.00026499000000",
"MEAN_MOTION_DOT":"0.00000228",
"MEAN_MOTION_DDOT":"0.0000000000000",
"SEMIMAJOR_AXIS":"8618.726",
"PERIOD":"132.716",
"APOAPSIS":"3832.194",
"PERIAPSIS":"648.987",
"OBJECT_TYPE":"PAYLOAD",
"RCS_SIZE":"SMALL",
"COUNTRY_CODE":"US",
"LAUNCH_DATE":"1958-03-17",
"SITE":"AFETR",
"DECAY_DATE":null,
"FILE":"3613285",
"GP_ID":"215156015",
"TLE_LINE0":"0 VANGUARD 1",
"TLE_LINE1":"1     5U 58002B   22287.97106587  .00000228  00000-0  26499-3 0  9999",
"TLE_LINE2":"2     5  34.2512 131.0650 1846681 215.5531 130.6980 10.85021060297611"},
{"CCSDS_OMM_VERS":"2.0",
"COMMENT":"GENERATED VIA SPACE-TRACK.ORG API",
"CREATION_DATE":"2022-10-15T19:37:08",
"ORIGINATOR":"18 SPCS",
"OBJECT_NAME":"VANGUARD 1",
"OBJECT_ID":"1958-002B",
"CENTER_NAME":"EARTH",
"REF_FRAME":"TEME",
"TIME_SYSTEM":"UTC",
"MEAN_ELEMENT_THEORY":"SGP4",
"EPOCH":"2022-10-15T05:55:52.959936",
"MEAN_MOTION":"10.85021184",
"ECCENTRICITY":"0.18466990",
"INCLINATION":"34.2515",
"RA_OF_ASC_NODE":"130.2141",
"ARG_OF_PERICENTER":"216.7962",
"MEAN_ANOMALY":"129.0680",
"EPHEMERIS_TYPE":"0",
"CLASSIFICATION_TYPE":"U",
"NORAD_CAT_ID":"5",
"ELEMENT_SET_NO":"999",
"REV_AT_EPOCH":"29755",
"BSTAR":"0.00025611000000",
"MEAN_MOTION_DOT":"0.00000221",
"MEAN_MOTION_DDOT":"0.0000000000000",
"SEMIMAJOR_AXIS":"8618.725",
"PERIOD":"132.716",
"APOAPSIS":"3832.209",
"PERIAPSIS":"648.971",
"OBJECT_TYPE":"PAYLOAD",
"RCS_SIZE":"SMALL",
"COUNTRY_CODE":"US",
"LAUNCH_DATE":"1958-03-17",
"SITE":"AFETR",
"DECAY_DATE":null,
"FILE":"3614916",
"GP_ID":"215184109",
"TLE_LINE0":"0 VANGUARD 1",
"TLE_LINE1":"1 00005U 58002B   22288.24714074  .00000221  00000-0  25611-3 0  9994",
"TLE_LINE2":"2 00005  34.2515 130.2141 1846699 216.7962 129.0680 10.85021184297559"},
{"CCSDS_OMM_VERS":"2.0",
"COMMENT":"GENERATED VIA SPACE-TRACK.ORG API",
"CREATION_DATE":"2022-10-16T04:19:25",
"ORIGINATOR":"18 SPCS",
"OBJECT_NAME":"VANGUARD 1",
"OBJECT_ID":"1958-002B",
"CENTER_NAME":"EARTH",
"REF_FRAME":"TEME",
"TIME_SYSTEM":"UTC",
"MEAN_ELEMENT_THEORY":"SGP4",
"EPOCH":"2022-10-15T19:10:59.316960",
"MEAN_MOTION":"10.85021407",
"ECCENTRICITY":"0.18467320",
"INCLINATION":"34.2519",
"RA_OF_ASC_NODE":"128.5124",
"ARG_OF_PERICENTER":"219.2820",
"MEAN_ANOMALY":"125.8357",
"EPHEMERIS_TYPE":"0",
"CLASSIFICATION_TYPE":"U",
"NORAD_CAT_ID":"5",
"ELEMENT_SET_NO":"999",
"REV_AT_EPOCH":"29761",
"BSTAR":"0.00024160000000",
"MEAN_MOTION_DOT":"0.00000210",
"MEAN_MOTION_DDOT":"0.0000000000000",
"SEMIMAJOR_AXIS":"8618.724",
"PERIOD":"132.716",
"APOAPSIS":"3832.236",
"PERIAPSIS":"648.942",
"OBJECT_TYPE":"PAYLOAD",
"RCS_SIZE":"SMALL",
"COUNTRY_CODE":"US",
"LAUNCH_DATE":"1958-03-17",
"SITE":"AFETR",
"DECAY_DATE":null,
"FILE":"3615679",
"GP_ID":"215227063",
"TLE_LINE0":"0 VANGUARD 1",
"TLE_LINE1":"1 00005U 58002B   22288.79929765  .00000210  00000-0  24160-3 0  9995",
"TLE_LINE2":"2 00005  34.2519 128.5124 1846732 219.2820 125.8357 10.85021407297613"},
{"CCSDS_OMM_VERS":"2.0",
"COMMENT":"GENERATED VIA SPACE-TRACK.ORG API",
"CREATION_DATE":"2022-10-16T19:08:30",
"ORIGINATOR":"18 SPCS",
"OBJECT_NAME":"VANGUARD 1",
"OBJECT_ID":"1958-002B",
"CENTER_NAME":"EARTH",
"REF_FRAME":"TEME",
"TIME_SYSTEM":"UTC",
"MEAN_ELEMENT_THEORY":"SGP4",
"EPOCH":"2022-10-16T12:51:09.093024",
"MEAN_MOTION":"10.85021704",
"ECCENTRICITY":"0.18467670",
"INCLINATION":"34.2524",
"RA_OF_ASC_NODE":"126.2434",
"ARG_OF_PERICENTER":"222.5965",
"MEAN_ANOMALY":"121.5854",
"EPHEMERIS_TYPE":"0",
"CLASSIFICATION_TYPE":"U",
"NORAD_CAT_ID":"5",
"ELEMENT_SET_NO":"999",
"REV_AT_EPOCH":"29769",
"BSTAR":"0.00023079000000",
"MEAN_MOTION_DOT":"0.00000202",
"MEAN_MOTION_DDOT":"0.0000000000000",
"SEMIMAJOR_AXIS":"8618.722",
"PERIOD":"132.716",
"APOAPSIS":"3832.265",
"PERIAPSIS":"648.910",
"OBJECT_TYPE":"PAYLOAD",
"RCS_SIZE":"SMALL",
"COUNTRY_CODE":"US",
"LAUNCH_DATE":"1958-03-17",
"SITE":"AFETR",
"DECAY_DATE":null,
"FILE":"3617121",
"GP_ID":"215281872",
"TLE_LINE0":"0 VANGUARD 1",
"TLE_LINE1":"1 00005U 58002B   22289.53552191  .00000202  00000-0  23079-3 0  9992",
"TLE_LINE2":"2 00005  34.2524 126.2434 1846767 222.5965 121.5854 10.85021704297696"}]